{
  "type": "FeatureCollection",
  "features": [
    {
      "type": "Feature",
      "properties": {
        "norad_id": 29937,
        "name": "FENGYUN 1C DEB",
        "group": "fengyun-1c-debris",
        "lat": -16.338580847767034,
        "lon": 23.00769495541939,
        "alt_km": 860.4474981875883,
        "timestamp": "2025-12-25T19:00:39.623221+00:00",
        "meta_object_name": "FENGYUN 1C DEB",
        "meta_object_id": "1999-025JK",
        "meta_epoch": "2025-12-25T00:31:53.860224",
        "meta_mean_motion": 14.0436019,
        "meta_eccentricity": 0.0031758,
        "meta_inclination": 98.8015,
        "meta_ra_of_asc_node": 19.6584,
        "meta_arg_of_pericenter": 347.2059,
        "meta_mean_anomaly": 65.7796,
        "meta_ephemeris_type": 0,
        "meta_classification_type": "U",
        "meta_norad_cat_id": 29937,
        "meta_element_set_no": 999,
        "meta_rev_at_epoch": 97108,
        "meta_bstar": 1.211088e-05,
        "meta_mean_motion_dot": -2.3e-07,
        "meta_mean_motion_ddot": 0,
        "tle_line1": "1 29937U 99025JK  25359.02215116 -.00000023  00000+0  12111-4 0  9992",
        "tle_line2": "2 29937  98.8015  19.6584 0031758 347.2059  65.7796 14.04360190971083"
      },
      "geometry": {
        "type": "Point",
        "coordinates": [
          23.00769495541939,
          -16.338580847767034
        ]
      }
    },
    {
      "type": "Feature",
      "properties": {
        "norad_id": 29938,
        "name": "FENGYUN 1C DEB",
        "group": "fengyun-1c-debris",
        "lat": 54.12904676124404,
        "lon": -22.905698357753845,
        "alt_km": 881.4841780275901,
        "timestamp": "2025-12-25T19:00:39.623231+00:00",
        "meta_object_name": "FENGYUN 1C DEB",
        "meta_object_id": "1999-025JL",
        "meta_epoch": "2025-12-24T20:52:28.142688",
        "meta_mean_motion": 14.07464581,
        "meta_eccentricity": 0.00325911,
        "meta_inclination": 98.8032,
        "meta_ra_of_asc_node": 348.5703,
        "meta_arg_of_pericenter": 275.7386,
        "meta_mean_anomaly": 148.3172,
        "meta_ephemeris_type": 0,
        "meta_classification_type": "U",
        "meta_norad_cat_id": 29938,
        "meta_element_set_no": 999,
        "meta_rev_at_epoch": 97227,
        "meta_bstar": 0.00010922502,
        "meta_mean_motion_dot": 1.41e-06,
        "meta_mean_motion_ddot": 0,
        "tle_line1": "1 29938U 99025JL  25358.86977017  .00000141  00000+0  10923-3 0  9997",
        "tle_line2": "2 29938  98.8032 348.5703 0032591 275.7386 148.3172 14.07464581972274"
      },
      "geometry": {
        "type": "Point",
        "coordinates": [
          -22.905698357753845,
          54.12904676124404
        ]
      }
    },
    {
      "type": "Feature",
      "properties": {
        "norad_id": 29939,
        "name": "FENGYUN 1C DEB",
        "group": "fengyun-1c-debris",
        "lat": -78.66190791658664,
        "lon": 129.13972224116267,
        "alt_km": 905.4707961215317,
        "timestamp": "2025-12-25T19:00:39.623242+00:00",
        "meta_object_name": "FENGYUN 1C DEB",
        "meta_object_id": "1999-025JM",
        "meta_epoch": "2025-12-24T23:19:24.119616",
        "meta_mean_motion": 14.12087286,
        "meta_eccentricity": 0.00672837,
        "meta_inclination": 98.7102,
        "meta_ra_of_asc_node": 358.2097,
        "meta_arg_of_pericenter": 104.2401,
        "meta_mean_anomaly": 310.441,
        "meta_ephemeris_type": 0,
        "meta_classification_type": "U",
        "meta_norad_cat_id": 29939,
        "meta_element_set_no": 999,
        "meta_rev_at_epoch": 97633,
        "meta_bstar": 3.9241573e-05,
        "meta_mean_motion_dot": 3.1e-07,
        "meta_mean_motion_ddot": 0,
        "tle_line1": "1 29939U 99025JM  25358.97180694  .00000031  00000+0  39242-4 0  9991",
        "tle_line2": "2 29939  98.7102 358.2097 0067283 104.2401 310.4410 14.12087286976333"
      },
      "geometry": {
        "type": "Point",
        "coordinates": [
          129.13972224116267,
          -78.66190791658664
        ]
      }
    },
    {
      "type": "Feature",
      "properties": {
        "norad_id": 29940,
        "name": "FENGYUN 1C DEB",
        "group": "fengyun-1c-debris",
        "lat": 22.463556198155242,
        "lon": 5.515262601356028,
        "alt_km": 787.328532915214,
        "timestamp": "2025-12-25T19:00:39.623252+00:00",
        "meta_object_name": "FENGYUN 1C DEB",
        "meta_object_id": "1999-025JN",
        "meta_epoch": "2025-12-25T00:32:37.334976",
        "meta_mean_motion": 14.1885145,
        "meta_eccentricity": 0.00745935,
        "meta_inclination": 98.6214,
        "meta_ra_of_asc_node": 8.3635,
        "meta_arg_of_pericenter": 64.7871,
        "meta_mean_anomaly": 350.4581,
        "meta_ephemeris_type": 0,
        "meta_classification_type": "U",
        "meta_norad_cat_id": 29940,
        "meta_element_set_no": 999,
        "meta_rev_at_epoch": 97662,
        "meta_bstar": 0.00058812572,
        "meta_mean_motion_dot": 1.216e-05,
        "meta_mean_motion_ddot": 0,
        "tle_line1": "1 29940U 99025JN  25359.02265434  .00001216  00000+0  58813-3 0  9996",
        "tle_line2": "2 29940  98.6214   8.3635 0074593  64.7871 350.4581 14.18851450976625"
      },
      "geometry": {
        "type": "Point",
        "coordinates": [
          5.515262601356028,
          22.463556198155242
        ]
      }
    },
    {
      "type": "Feature",
      "properties": {
        "norad_id": 29942,
        "name": "FENGYUN 1C DEB",
        "group": "fengyun-1c-debris",
        "lat": 67.00985967908449,
        "lon": 44.54703780478382,
        "alt_km": 818.2878303362913,
        "timestamp": "2025-12-25T19:00:39.623262+00:00",
        "meta_object_name": "FENGYUN 1C DEB",
        "meta_object_id": "1999-025JQ",
        "meta_epoch": "2025-12-25T03:34:47.785152",
        "meta_mean_motion": 14.30455221,
        "meta_eccentricity": 0.00493001,
        "meta_inclination": 98.636,
        "meta_ra_of_asc_node": 64.8988,
        "meta_arg_of_pericenter": 239.13,
        "meta_mean_anomaly": 120.5028,
        "meta_ephemeris_type": 0,
        "meta_classification_type": "U",
        "meta_norad_cat_id": 29942,
        "meta_element_set_no": 999,
        "meta_rev_at_epoch": 98046,
        "meta_bstar": 0.00067240101,
        "meta_mean_motion_dot": 1.729e-05,
        "meta_mean_motion_ddot": 0,
        "tle_line1": "1 29942U 99025JQ  25359.14916418  .00001729  00000+0  67240-3 0  9999",
        "tle_line2": "2 29942  98.6360  64.8988 0049300 239.1300 120.5028 14.30455221980469"
      },
      "geometry": {
        "type": "Point",
        "coordinates": [
          44.54703780478382,
          67.00985967908449
        ]
      }
    },
    {
      "type": "Feature",
      "properties": {
        "norad_id": 29943,
        "name": "FENGYUN 1C DEB",
        "group": "fengyun-1c-debris",
        "lat": 55.50286487081627,
        "lon": -159.93509060013827,
        "alt_km": 844.7253916404197,
        "timestamp": "2025-12-25T19:00:39.623272+00:00",
        "meta_object_name": "FENGYUN 1C DEB",
        "meta_object_id": "1999-025JR",
        "meta_epoch": "2025-12-25T06:48:50.156640",
        "meta_mean_motion": 14.09673453,
        "meta_eccentricity": 0.00354022,
        "meta_inclination": 98.7269,
        "meta_ra_of_asc_node": 6.6569,
        "meta_arg_of_pericenter": 191.046,
        "meta_mean_anomaly": 235.127,
        "meta_ephemeris_type": 0,
        "meta_classification_type": "U",
        "meta_norad_cat_id": 29943,
        "meta_element_set_no": 999,
        "meta_rev_at_epoch": 97483,
        "meta_bstar": 5.36797e-07,
        "meta_mean_motion_dot": -4.2e-07,
        "meta_mean_motion_ddot": 0,
        "tle_line1": "1 29943U 99025JR  25359.28391385 -.00000042  00000+0  53680-6 0  9999",
        "tle_line2": "2 29943  98.7269   6.6569 0035402 191.0460 235.1270 14.09673453974830"
      },
      "geometry": {
        "type": "Point",
        "coordinates": [
          -159.93509060013827,
          55.50286487081627
        ]
      }
    },
    {
      "type": "Feature",
      "properties": {
        "norad_id": 29944,
        "name": "FENGYUN 1C DEB",
        "group": "fengyun-1c-debris",
        "lat": -8.6522012317231,
        "lon": -62.99052549144363,
        "alt_km": 718.9764568476967,
        "timestamp": "2025-12-25T19:00:39.623283+00:00",
        "meta_object_name": "FENGYUN 1C DEB",
        "meta_object_id": "1999-025JS",
        "meta_epoch": "2025-12-25T01:17:42.834336",
        "meta_mean_motion": 14.87700362,
        "meta_eccentricity": 0.01665065,
        "meta_inclination": 99.0052,
        "meta_ra_of_asc_node": 294.7893,
        "meta_arg_of_pericenter": 192.5545,
        "meta_mean_anomaly": 167.1498,
        "meta_ephemeris_type": 0,
        "meta_classification_type": "U",
        "meta_norad_cat_id": 29944,
        "meta_element_set_no": 999,
        "meta_rev_at_epoch": 637,
        "meta_bstar": 0.00076018316,
        "meta_mean_motion_dot": 8.878e-05,
        "meta_mean_motion_ddot": 0,
        "tle_line1": "1 29944U 99025JS  25359.05396799  .00008878  00000+0  76018-3 0  9990",
        "tle_line2": "2 29944  99.0052 294.7893 0166506 192.5545 167.1498 14.87700362  6372"
      },
      "geometry": {
        "type": "Point",
        "coordinates": [
          -62.99052549144363,
          -8.6522012317231
        ]
      }
    }
  ]
}